QIANFAN-57              
1 62787U 25016C   25299.49799282  .00000060  00000+0  74184-4 0  9994
2 62787  88.9748 108.0752 0000968  79.2622 280.8638 13.50976514 40820
QIANFAN-58              
1 62788U 25016D   25299.46916721  .00000071  00000+0  90360-4 0  9997
2 62788  88.9718 107.9243 0015407 117.0274 243.2452 13.50976186 40865
QIANFAN-59              
1 62789U 25016E   25299.49384470  .00000066  00000+0  83452-4 0  9999
2 62789  88.9741 107.9842 0015746 120.4465 239.8244 13.50975545 40861
QIANFAN-60              
1 62790U 25016F   25299.45283828  .00000052  00000+0  62061-4 0  9990
2 62790  88.9722 107.9690 0017313 117.6045 242.6866 13.50972218 40841
QIANFAN-61              
1 62791U 25016G   25299.48559002  .00000060  00000+0  74361-4 0  9999
2 62791  88.9789 108.0963 0016274 116.8278 243.4540 13.50975856 40865
QIANFAN-62              
1 62792U 25016H   25299.48987876  .00000076  00000+0  99331-4 0  9995
2 62792  88.9736 107.9898 0017654 117.3823 242.9127 13.50979438 40852
QIANFAN-63              
1 62793U 25016J   25299.51444918  .00000045  00000+0  51026-4 0  9990
2 62793  88.9743 107.9356 0017629 122.2034 238.0829 13.50972683 40895
QIANFAN-64              
1 62794U 25016K   25299.48150634  .00000059  00000+0  72542-4 0  9997
2 62794  88.9729 107.9195 0015651 115.4971 244.7801 13.50974426 40888
